{
  "type": "FeatureCollection",
  "features": [
    {
      "type": "Feature",
      "properties": {
        "norad_id": 66676,
        "name": "TRANSPORTER-15 L",
        "group": "last-30-days",
        "lat": -15.337904601903958,
        "lon": -114.07501206886349,
        "alt_km": 518.9159590617546,
        "timestamp": "2025-12-22T09:53:36.143437+00:00",
        "meta_object_name": "TRANSPORTER-15 L",
        "meta_object_id": "2025-276L",
        "meta_epoch": "2025-12-22T04:17:03.905088",
        "meta_mean_motion": 15.16788462,
        "meta_eccentricity": 0.0004799,
        "meta_inclination": 97.4391,
        "meta_ra_of_asc_node": 67.7495,
        "meta_arg_of_pericenter": 259.9188,
        "meta_mean_anomaly": 100.1504,
        "meta_ephemeris_type": 0,
        "meta_classification_type": "U",
        "meta_norad_cat_id": 66676,
        "meta_element_set_no": 999,
        "meta_rev_at_epoch": 355,
        "meta_bstar": 0.00053109,
        "meta_mean_motion_dot": 0.00010374,
        "meta_mean_motion_ddot": 0,
        "tle_line1": "1 66676U 25276L   25356.17851742  .00010374  00000+0  53109-3 0  9994",
        "tle_line2": "2 66676  97.4391  67.7495 0004799 259.9188 100.1504 15.16788462  3557"
      },
      "geometry": {
        "type": "Point",
        "coordinates": [
          -114.07501206886349,
          -15.337904601903958
        ]
      }
    },
    {
      "type": "Feature",
      "properties": {
        "norad_id": 66677,
        "name": "TRANSPORTER-15 M",
        "group": "last-30-days",
        "lat": -61.68105196050631,
        "lon": -126.0355288831884,
        "alt_km": 501.58443850789445,
        "timestamp": "2025-12-22T09:53:36.143446+00:00",
        "meta_object_name": "TRANSPORTER-15 M",
        "meta_object_id": "2025-276M",
        "meta_epoch": "2025-12-22T04:05:27.832992",
        "meta_mean_motion": 15.20048419,
        "meta_eccentricity": 0.0013757,
        "meta_inclination": 97.4387,
        "meta_ra_of_asc_node": 67.7578,
        "meta_arg_of_pericenter": 222.2681,
        "meta_mean_anomaly": 137.7495,
        "meta_ephemeris_type": 0,
        "meta_classification_type": "U",
        "meta_norad_cat_id": 66677,
        "meta_element_set_no": 999,
        "meta_rev_at_epoch": 355,
        "meta_bstar": 0.074519,
        "meta_mean_motion_dot": 0.01760874,
        "meta_mean_motion_ddot": 0,
        "tle_line1": "1 66677U 25276M   25356.17046103  .01760874  00000+0  74519-1 0  9996",
        "tle_line2": "2 66677  97.4387  67.7578 0013757 222.2681 137.7495 15.20048419  3551"
      },
      "geometry": {
        "type": "Point",
        "coordinates": [
          -126.0355288831884,
          -61.68105196050631
        ]
      }
    },
    {
      "type": "Feature",
      "properties": {
        "norad_id": 66678,
        "name": "TRANSPORTER-15 N",
        "group": "last-30-days",
        "lat": -18.748124109808447,
        "lon": -114.55272394609446,
        "alt_km": 518.5020603132334,
        "timestamp": "2025-12-22T09:53:36.143458+00:00",
        "meta_object_name": "TRANSPORTER-15 N",
        "meta_object_id": "2025-276N",
        "meta_epoch": "2025-12-22T04:16:10.204032",
        "meta_mean_motion": 15.16844106,
        "meta_eccentricity": 0.0004893,
        "meta_inclination": 97.4426,
        "meta_ra_of_asc_node": 67.7603,
        "meta_arg_of_pericenter": 252.6352,
        "meta_mean_anomaly": 107.4346,
        "meta_ephemeris_type": 0,
        "meta_classification_type": "U",
        "meta_norad_cat_id": 66678,
        "meta_element_set_no": 999,
        "meta_rev_at_epoch": 355,
        "meta_bstar": 0.00049474,
        "meta_mean_motion_dot": 9.674e-05,
        "meta_mean_motion_ddot": 0,
        "tle_line1": "1 66678U 25276N   25356.17789588  .00009674  00000+0  49474-3 0  9995",
        "tle_line2": "2 66678  97.4426  67.7603 0004893 252.6352 107.4346 15.16844106  3559"
      },
      "geometry": {
        "type": "Point",
        "coordinates": [
          -114.55272394609446,
          -18.748124109808447
        ]
      }
    },
    {
      "type": "Feature",
      "properties": {
        "norad_id": 66679,
        "name": "TRANSPORTER-15 P",
        "group": "last-30-days",
        "lat": -18.126891361867393,
        "lon": -114.47953333607677,
        "alt_km": 514.7006923214976,
        "timestamp": "2025-12-22T09:53:36.143468+00:00",
        "meta_object_name": "TRANSPORTER-15 P",
        "meta_object_id": "2025-276P",
        "meta_epoch": "2025-12-21T10:52:32.598048",
        "meta_mean_motion": 15.17590497,
        "meta_eccentricity": 0.00037983,
        "meta_inclination": 97.4397,
        "meta_ra_of_asc_node": 67.0293,
        "meta_arg_of_pericenter": 283.1797,
        "meta_mean_anomaly": 76.9013,
        "meta_ephemeris_type": 0,
        "meta_classification_type": "U",
        "meta_norad_cat_id": 66679,
        "meta_element_set_no": 999,
        "meta_rev_at_epoch": 344,
        "meta_bstar": 0.026256086,
        "meta_mean_motion_dot": 0.0056315,
        "meta_mean_motion_ddot": 0,
        "tle_line1": "1 66679U 25276P   25355.45315507  .00563150  00000+0  26256-1 0  9997",
        "tle_line2": "2 66679  97.4397  67.0293 0003798 283.1797  76.9013 15.17590497  3441"
      },
      "geometry": {
        "type": "Point",
        "coordinates": [
          -114.47953333607677,
          -18.126891361867393
        ]
      }
    },
    {
      "type": "Feature",
      "properties": {
        "norad_id": 66680,
        "name": "TRANSPORTER-15 Q",
        "group": "last-30-days",
        "lat": -19.816637643659636,
        "lon": -114.7122756173394,
        "alt_km": 518.4455353774838,
        "timestamp": "2025-12-22T09:53:36.143478+00:00",
        "meta_object_name": "TRANSPORTER-15 Q",
        "meta_object_id": "2025-276Q",
        "meta_epoch": "2025-12-22T04:15:52.568928",
        "meta_mean_motion": 15.16821154,
        "meta_eccentricity": 0.0005559,
        "meta_inclination": 97.4414,
        "meta_ra_of_asc_node": 67.7571,
        "meta_arg_of_pericenter": 254.6682,
        "meta_mean_anomaly": 105.3937,
        "meta_ephemeris_type": 0,
        "meta_classification_type": "U",
        "meta_norad_cat_id": 66680,
        "meta_element_set_no": 999,
        "meta_rev_at_epoch": 355,
        "meta_bstar": 0.00033551,
        "meta_mean_motion_dot": 6.533e-05,
        "meta_mean_motion_ddot": 0,
        "tle_line1": "1 66680U 25276Q   25356.17769177  .00006533  00000+0  33551-3 0  9990",
        "tle_line2": "2 66680  97.4414  67.7571 0005559 254.6682 105.3937 15.16821154  3552"
      },
      "geometry": {
        "type": "Point",
        "coordinates": [
          -114.7122756173394,
          -19.816637643659636
        ]
      }
    },
    {
      "type": "Feature",
      "properties": {
        "norad_id": 66681,
        "name": "TRANSPORTER-15 R",
        "group": "last-30-days",
        "lat": -46.040624975811504,
        "lon": -119.80533443741952,
        "alt_km": 518.3100500434548,
        "timestamp": "2025-12-22T09:53:36.143487+00:00",
        "meta_object_name": "TRANSPORTER-15 R",
        "meta_object_id": "2025-276R",
        "meta_epoch": "2025-12-22T02:34:02.353152",
        "meta_mean_motion": 15.17406302,
        "meta_eccentricity": 0.0004986,
        "meta_inclination": 97.4337,
        "meta_ra_of_asc_node": 67.6767,
        "meta_arg_of_pericenter": 278.6077,
        "meta_mean_anomaly": 81.4592,
        "meta_ephemeris_type": 0,
        "meta_classification_type": "U",
        "meta_norad_cat_id": 66681,
        "meta_element_set_no": 999,
        "meta_rev_at_epoch": 354,
        "meta_bstar": 0.00086922,
        "meta_mean_motion_dot": 0.00017341,
        "meta_mean_motion_ddot": 0,
        "tle_line1": "1 66681U 25276R   25356.10697168  .00017341  00000+0  86922-3 0  9993",
        "tle_line2": "2 66681  97.4337  67.6767 0004986 278.6077  81.4592 15.17406302  3545"
      },
      "geometry": {
        "type": "Point",
        "coordinates": [
          -119.80533443741952,
          -46.040624975811504
        ]
      }
    },
    {
      "type": "Feature",
      "properties": {
        "norad_id": 66682,
        "name": "TRANSPORTER-15 S",
        "group": "last-30-days",
        "lat": -34.33947485789017,
        "lon": -117.11976870559897,
        "alt_km": 517.8454724145922,
        "timestamp": "2025-12-22T09:53:36.143499+00:00",
        "meta_object_name": "TRANSPORTER-15 S",
        "meta_object_id": "2025-276S",
        "meta_epoch": "2025-12-22T04:12:04.605984",
        "meta_mean_motion": 15.17120268,
        "meta_eccentricity": 0.0004835,
        "meta_inclination": 97.4456,
        "meta_ra_of_asc_node": 67.773,
        "meta_arg_of_pericenter": 242.1253,
        "meta_mean_anomaly": 117.9491,
        "meta_ephemeris_type": 0,
        "meta_classification_type": "U",
        "meta_norad_cat_id": 66682,
        "meta_element_set_no": 999,
        "meta_rev_at_epoch": 355,
        "meta_bstar": 0.00061359,
        "meta_mean_motion_dot": 0.00012113,
        "meta_mean_motion_ddot": 0,
        "tle_line1": "1 66682U 25276S   25356.17505331  .00012113  00000+0  61359-3 0  9990",
        "tle_line2": "2 66682  97.4456  67.7730 0004835 242.1253 117.9491 15.17120268  3552"
      },
      "geometry": {
        "type": "Point",
        "coordinates": [
          -117.11976870559897,
          -34.33947485789017
        ]
      }
    }
  ]
}